IRIDIUM 126             
1 42809U 17039G   25339.26192749  .00000192  00000+0  61611-4 0  9995
2 42809  86.3969  74.7118 0001836  96.7101 263.4303 14.34217237442157
IRIDIUM 124             
1 42810U 17039H   25339.13405310  .00000742  00000+0  21463-3 0  9995
2 42810  86.4500  11.4878 0002181  99.2778 260.8670 14.43289180447120
IRIDIUM 128             
1 42811U 17039J   25339.32243841  .00000099  00000+0  28346-4 0  9999
2 42811  86.3961 106.2199 0002210 103.4464 256.6978 14.34218232442199
IRIDIUM 121             
1 42812U 17039K   25339.28095936  .00000154  00000+0  47993-4 0  9996
2 42812  86.3970  74.7302 0002164  96.9317 263.2125 14.34217951442034
IRIDIUM 133             
1 42955U 17061A   25339.28438234  .00000130  00000+0  39392-4 0  9999
2 42955  86.3962 106.3489 0002003  97.2112 262.9312 14.34218045426985
IRIDIUM 100             
1 42956U 17061B   25339.27803688  .00000556  00000+0  19147-3 0  9995
2 42956  86.3962 106.2746 0001907  97.0339 263.1074 14.34218309426983
IRIDIUM 122             
1 42957U 17061C   25339.31609495  .00000127  00000+0  38187-4 0  9991
2 42957  86.3960 106.2585 0001911  96.6838 263.4576 14.34217852426990
IRIDIUM 129             
1 42958U 17061D   25339.27169622  .00000125  00000+0  37588-4 0  9992
2 42958  86.3959 106.3417 0001919  83.4833 276.6581 14.34217869427004
